IXPE                    
1 49954U 21121A   24054.91668981  .00007555  00000+0  57553-3 0  9990
2 49954   0.2300 160.1865 0009499  24.3688  88.1932 14.96619918120746
